*******************************************************************************
Ephemeris / WWW_USER Mon Mar 24 11:28:14 2025 Pasadena, USA      / Horizons    
*******************************************************************************
Target body name: (2013 AZ60)                     {source: JPL#49}
Center body name: Earth (399)                     {source: DE441}
Center-site name: Mauna Kea
*******************************************************************************
Start time      : A.D. 2018-Aug-18 04:58:00.0000 UT      
Stop  time      : A.D. 2018-Aug-18 15:53:00.0000 UT      
Step-size       : 1 minutes
*******************************************************************************
Target pole/equ : undefined
Target radii    : undefined                                                    
Center geodetic : 204.5278, 19.8260847, 4.21024   {E-lon(deg),Lat(deg),Alt(km)}
Center cylindric: 204.5278, 6006.35451, 2151.0229 {E-lon(deg),Dxy(km),Dz(km)}
Center pole/equ : ITRF93                          {East-longitude positive}
Center radii    : 6378.137, 6378.137, 6356.752 km {Equator_a, b, pole_c}       
Target primary  : Sun
Vis. interferer : MOON (R_eq= 1737.400) km        {source: DE441}
Rel. light bend : Sun                             {source: DE441}
Rel. lght bnd GM: 1.3271E+11 km^3/s^2                                          
Small-body perts: Yes                             {source: SB441-N16}
Atmos refraction: NO (AIRLESS)
RA format       : HMS
Time format     : CAL 
Calendar mode   : Mixed Julian/Gregorian
RTS-only print  : NO       
EOP file        : eop.250321.p250617                                           
EOP coverage    : DATA-BASED 1962-JAN-20 TO 2025-MAR-21. PREDICTS-> 2025-JUN-16
Units conversion: 1 au= 149597870.700 km, c= 299792.458 km/s, 1 day= 86400.0 s 
Table cut-offs 1: Elevation (-90.0deg=NO ),Airmass (>38.000=NO), Daylight (YES)
Table cut-offs 2: Solar elongation (  0.0,180.0=NO ),Local Hour Angle( 0.0=NO )
Table cut-offs 3: RA/DEC angular rate (     0.0=NO )                           
*******************************************************************************
Initial IAU76/J2000 heliocentric ecliptic osculating elements (au, days, deg.):
  EPOCH=  2457400.5 ! 2016-Jan-13.00 (TDB)         Residual RMS= .1326         
   EC= .9891456016948332   QR= 7.910280980491398   TP= 2456989.3208761909      
   OM= 349.2102750469422   W=  158.2320149266156   IN= 16.53862471305098       
  Equivalent ICRF heliocentric cartesian coordinates (au, au/d):
   X=-8.215502218447208E+00  Y= 1.083611838195559E+00  Z= 3.298265209415168E-01
  VX=-2.822922434188891E-03 VY=-6.008885131743716E-03 VZ=-5.184670886061429E-03
Asteroid physical parameters (km, seconds, rotational period in hours):        
   GM= n.a.                RAD= n.a.               ROTPER= 9.39                
   H= 10.3                 G= .150                 B-V= n.a.                   
                           ALBEDO= n.a.            STYP= n.a.                  
*******************************************************************************
 Date__(UT)__HR:MN     R.A._________(ICRF)_________DEC
******************************************************
$$SOE
 2018-Aug-18 11:07     13 25 56.514934 -20 56 11.39690
 2018-Aug-18 11:08     13 25 56.527177 -20 56 11.44531
 2018-Aug-18 11:09     13 25 56.539420 -20 56 11.49373
 2018-Aug-18 11:10     13 25 56.551664 -20 56 11.54214
 2018-Aug-18 11:11     13 25 56.563908 -20 56 11.59057
 2018-Aug-18 11:12     13 25 56.576154 -20 56 11.63900
 2018-Aug-18 11:13     13 25 56.588400 -20 56 11.68743
 2018-Aug-18 11:14     13 25 56.600647 -20 56 11.73586
 2018-Aug-18 11:15     13 25 56.612895 -20 56 11.78431
 2018-Aug-18 11:16     13 25 56.625143 -20 56 11.83275
 2018-Aug-18 11:17     13 25 56.637393 -20 56 11.88120
 2018-Aug-18 11:18     13 25 56.649643 -20 56 11.92966
 2018-Aug-18 11:19     13 25 56.661893 -20 56 11.97812
 2018-Aug-18 11:20     13 25 56.674145 -20 56 12.02658
 2018-Aug-18 11:21     13 25 56.686397 -20 56 12.07505
 2018-Aug-18 11:22     13 25 56.698650 -20 56 12.12352
 2018-Aug-18 11:23     13 25 56.710904 -20 56 12.17200
 2018-Aug-18 11:24     13 25 56.723158 -20 56 12.22048
 2018-Aug-18 11:25     13 25 56.735414 -20 56 12.26897
 2018-Aug-18 11:26     13 25 56.747670 -20 56 12.31746
 2018-Aug-18 11:27     13 25 56.759926 -20 56 12.36596
 2018-Aug-18 11:28     13 25 56.772184 -20 56 12.41446
 2018-Aug-18 11:29     13 25 56.784442 -20 56 12.46296
 2018-Aug-18 11:30     13 25 56.796701 -20 56 12.51147
 2018-Aug-18 11:31     13 25 56.808960 -20 56 12.55999
 2018-Aug-18 11:32     13 25 56.821220 -20 56 12.60851
 2018-Aug-18 11:33     13 25 56.833481 -20 56 12.65703
 2018-Aug-18 11:34     13 25 56.845743 -20 56 12.70556
 2018-Aug-18 11:35     13 25 56.858005 -20 56 12.75410
 2018-Aug-18 11:36     13 25 56.870268 -20 56 12.80263
 2018-Aug-18 11:37     13 25 56.882532 -20 56 12.85118
 2018-Aug-18 11:38     13 25 56.894796 -20 56 12.89973
 2018-Aug-18 11:39     13 25 56.907062 -20 56 12.94828
 2018-Aug-18 11:40     13 25 56.919327 -20 56 12.99684
 2018-Aug-18 11:41     13 25 56.931594 -20 56 13.04540
 2018-Aug-18 11:42     13 25 56.943861 -20 56 13.09397
 2018-Aug-18 11:43     13 25 56.956129 -20 56 13.14254
 2018-Aug-18 11:44     13 25 56.968397 -20 56 13.19112
 2018-Aug-18 11:45     13 25 56.980666 -20 56 13.23970
 2018-Aug-18 11:46     13 25 56.992936 -20 56 13.28829
 2018-Aug-18 11:47     13 25 57.005206 -20 56 13.33688
 2018-Aug-18 11:48     13 25 57.017478 -20 56 13.38548
 2018-Aug-18 11:49     13 25 57.029749 -20 56 13.43408
 2018-Aug-18 11:50     13 25 57.042022 -20 56 13.48269
 2018-Aug-18 11:51     13 25 57.054295 -20 56 13.53130
 2018-Aug-18 11:52     13 25 57.066568 -20 56 13.57992
 2018-Aug-18 11:53     13 25 57.078843 -20 56 13.62854
 2018-Aug-18 11:54     13 25 57.091118 -20 56 13.67717
 2018-Aug-18 11:55     13 25 57.103393 -20 56 13.72580
 2018-Aug-18 11:56     13 25 57.115669 -20 56 13.77444
 2018-Aug-18 11:57     13 25 57.127946 -20 56 13.82308
 2018-Aug-18 11:58     13 25 57.140223 -20 56 13.87173
 2018-Aug-18 11:59     13 25 57.152502 -20 56 13.92038
 2018-Aug-18 12:00     13 25 57.164780 -20 56 13.96904
 2018-Aug-18 12:01     13 25 57.177059 -20 56 14.01770
 2018-Aug-18 12:02     13 25 57.189339 -20 56 14.06637
 2018-Aug-18 12:03     13 25 57.201620 -20 56 14.11504
 2018-Aug-18 12:04     13 25 57.213901 -20 56 14.16372
 2018-Aug-18 12:05     13 25 57.226182 -20 56 14.21240
 2018-Aug-18 12:06     13 25 57.238465 -20 56 14.26109
 2018-Aug-18 12:07     13 25 57.250747 -20 56 14.30979
 2018-Aug-18 12:08     13 25 57.263031 -20 56 14.35848
 2018-Aug-18 12:09     13 25 57.275315 -20 56 14.40719
 2018-Aug-18 12:10     13 25 57.287599 -20 56 14.45590
 2018-Aug-18 12:11     13 25 57.299884 -20 56 14.50461
 2018-Aug-18 12:12     13 25 57.312170 -20 56 14.55333
 2018-Aug-18 12:13     13 25 57.324456 -20 56 14.60205
 2018-Aug-18 12:14     13 25 57.336743 -20 56 14.65078
 2018-Aug-18 12:15     13 25 57.349030 -20 56 14.69952
 2018-Aug-18 12:16     13 25 57.361318 -20 56 14.74826
 2018-Aug-18 12:17     13 25 57.373606 -20 56 14.79701
 2018-Aug-18 12:18     13 25 57.385895 -20 56 14.84576
 2018-Aug-18 12:19     13 25 57.398185 -20 56 14.89451
 2018-Aug-18 12:20     13 25 57.410475 -20 56 14.94327
 2018-Aug-18 12:21     13 25 57.422766 -20 56 14.99204
 2018-Aug-18 12:22     13 25 57.435057 -20 56 15.04081
 2018-Aug-18 12:23     13 25 57.447348 -20 56 15.08959
 2018-Aug-18 12:24     13 25 57.459640 -20 56 15.13837
 2018-Aug-18 12:25     13 25 57.471933 -20 56 15.18716
 2018-Aug-18 12:26     13 25 57.484226 -20 56 15.23595
 2018-Aug-18 12:27     13 25 57.496520 -20 56 15.28475
 2018-Aug-18 12:28     13 25 57.508814 -20 56 15.33355
 2018-Aug-18 12:29     13 25 57.521109 -20 56 15.38236
 2018-Aug-18 12:30     13 25 57.533404 -20 56 15.43118
 2018-Aug-18 12:31     13 25 57.545699 -20 56 15.48000
 2018-Aug-18 12:32     13 25 57.557996 -20 56 15.52882
 2018-Aug-18 12:33     13 25 57.570292 -20 56 15.57765
 2018-Aug-18 12:34     13 25 57.582589 -20 56 15.62649
 2018-Aug-18 12:35     13 25 57.594887 -20 56 15.67533
 2018-Aug-18 12:36     13 25 57.607185 -20 56 15.72418
 2018-Aug-18 12:37     13 25 57.619483 -20 56 15.77303
 2018-Aug-18 12:38     13 25 57.631782 -20 56 15.82189
 2018-Aug-18 12:39     13 25 57.644082 -20 56 15.87075
 2018-Aug-18 12:40     13 25 57.656382 -20 56 15.91962
 2018-Aug-18 12:41     13 25 57.668682 -20 56 15.96849
 2018-Aug-18 12:42     13 25 57.680983 -20 56 16.01737
 2018-Aug-18 12:43     13 25 57.693284 -20 56 16.06626
 2018-Aug-18 12:44     13 25 57.705586 -20 56 16.11515
 2018-Aug-18 12:45     13 25 57.717888 -20 56 16.16405
 2018-Aug-18 12:46     13 25 57.730191 -20 56 16.21295
 2018-Aug-18 12:47     13 25 57.742493 -20 56 16.26185
 2018-Aug-18 12:48     13 25 57.754797 -20 56 16.31077
 2018-Aug-18 12:49     13 25 57.767101 -20 56 16.35968
 2018-Aug-18 12:50     13 25 57.779405 -20 56 16.40861
 2018-Aug-18 12:51     13 25 57.791710 -20 56 16.45754
 2018-Aug-18 12:52     13 25 57.804015 -20 56 16.50647
 2018-Aug-18 12:53     13 25 57.816320 -20 56 16.55541
 2018-Aug-18 12:54     13 25 57.828626 -20 56 16.60436
 2018-Aug-18 12:55     13 25 57.840932 -20 56 16.65331
 2018-Aug-18 12:56     13 25 57.853239 -20 56 16.70226
 2018-Aug-18 12:57     13 25 57.865546 -20 56 16.75123
 2018-Aug-18 12:58     13 25 57.877853 -20 56 16.80019
 2018-Aug-18 12:59     13 25 57.890161 -20 56 16.84917
 2018-Aug-18 13:00     13 25 57.902469 -20 56 16.89815
 2018-Aug-18 13:01     13 25 57.914778 -20 56 16.94713
 2018-Aug-18 13:02     13 25 57.927087 -20 56 16.99612
 2018-Aug-18 13:03     13 25 57.939396 -20 56 17.04512
 2018-Aug-18 13:04     13 25 57.951706 -20 56 17.09412
 2018-Aug-18 13:05     13 25 57.964016 -20 56 17.14312
 2018-Aug-18 13:06     13 25 57.976326 -20 56 17.19214
 2018-Aug-18 13:07     13 25 57.988637 -20 56 17.24116
 2018-Aug-18 13:08     13 25 58.000948 -20 56 17.29018
 2018-Aug-18 13:09     13 25 58.013259 -20 56 17.33921
